      2.10          N: GNSS NAV DATA                        RINEX VERSION / TYPE
fic2rin                                 10/30/2018 00:21:49 PGM / RUN BY / DATE
                                                            END OF HEADER
 1 18 10 30  0  0  0.0-1.071104779840e-04-5.115907697473e-12 0.000000000000e+00
    6.600000000000e+01-8.100000000000e+01 4.013381459161e-09 2.052317135064e+00
   -4.276633262634e-06 8.153743925504e-03 9.393319487572e-06 5.153666757584e+03
    1.728000000000e+05-1.452863216400e-07 7.790472146949e-01-6.332993507385e-08
    9.730457876742e-01 2.051562500000e+02 6.989868386704e-01-7.806753754058e-09
    1.160762636137e-10 1.000000000000e+00 2.025000000000e+03 0.000000000000e+00
    2.400000000000e+00 0.000000000000e+00 5.587935447693e-09 6.600000000000e+01
    1.656060000000e+05 4.000000000000e+00
 8 18 10 30  0  0  0.0-1.203636638820e-04-1.364242052659e-12 0.000000000000e+00
    1.700000000000e+01-4.384375000000e+01 4.343395205559e-09-1.642178773715e+00
   -2.212822437286e-06 3.700979752466e-03 3.481283783913e-06 5.153647323608e+03
    1.728000000000e+05 1.303851604462e-08-2.860856848457e-01-1.862645149231e-09
    9.700944265210e-01 3.179062500000e+02-4.169381947608e-01-8.240700401106e-09
   -6.214544575012e-11 1.000000000000e+00 2.025000000000e+03 0.000000000000e+00
    2.400000000000e+00 0.000000000000e+00 5.122274160385e-09 1.700000000000e+01
    1.656060000000e+05 4.000000000000e+00
 5 18 10 30  0  0  0.0-5.643814802170e-07 3.410605131648e-13 0.000000000000e+00
    8.500000000000e+01-1.250000000000e+01 4.847344768509e-09-1.336694724918e+00
   -5.885958671570e-07 5.598106537946e-03 8.389353752136e-06 5.153563472748e+03
    1.728000000000e+05 1.285225152969e-07 1.798051085851e+00 3.725290298462e-09
    9.482741753571e-01 2.045000000000e+02 7.122352325306e-01-8.095337203288e-09
    5.232360805973e-10 1.000000000000e+00 2.025000000000e+03 0.000000000000e+00
    2.400000000000e+00 0.000000000000e+00-1.117587089539e-08 8.500000000000e+01
    1.656060000000e+05 4.000000000000e+00
 3 18 10 30  0  0  0.0 1.546964049339e-04 4.320099833421e-12 0.000000000000e+00
    5.200000000000e+01 1.843750000000e+00 4.599120143243e-09 9.485426881189e-01
   -1.434236764908e-07 1.841495744884e-03 8.635222911835e-06 5.153646482468e+03
    1.728000000000e+05-7.823109626770e-08 1.822009615614e+00 2.048909664154e-08
    9.613978495994e-01 2.134375000000e+02 6.949639178196e-01-7.985689778890e-09
    4.178745490094e-10 1.000000000000e+00 2.025000000000e+03 0.000000000000e+00
    2.400000000000e+00 0.000000000000e+00 2.328306436539e-09 5.200000000000e+01
    1.656060000000e+05 4.000000000000e+00
 4 18 10 30  0  0  0.0-1.354329288006e-05-2.512479113648e-11 0.000000000000e+00
    2.000000000000e+01-3.768750000000e+01 4.503044712744e-09-1.849866817670e+00
   -1.894310116768e-06 1.362166402396e-02 3.114342689514e-06 5.153675315857e+03
    1.728000000000e+05 1.080334186554e-07-3.736082816446e-01-1.471489667892e-07
    9.590242533124e-01 3.173437500000e+02 5.732867554888e-01-8.201770208079e-09
    4.000166622996e-11 1.000000000000e+00 2.025000000000e+03 0.000000000000e+00
    2.400000000000e+00 6.300000000000e+01-5.587935447693e-09 2.000000000000e+01
    1.656060000000e+05 4.000000000000e+00
17 18 10 30  0  0  0.0-3.799051046371e-05 4.661160346586e-12 0.000000000000e+00
    1.400000000000e+01-6.450000000000e+01 4.034096607745e-09-2.036264170713e+00
   -3.194436430931e-06 1.278270070907e-02 3.235414624214e-06 5.153635543823e+03
    1.728000000000e+05 2.048909664154e-07-2.214712323887e-01 1.117587089539e-08
    9.837295471642e-01 3.291562500000e+02-1.767044443534e+00-7.929973172356e-09
   -1.389343586023e-10 1.000000000000e+00 2.025000000000e+03 0.000000000000e+00
    2.400000000000e+00 0.000000000000e+00-1.117587089539e-08 1.400000000000e+01
    1.656060000000e+05 4.000000000000e+00
27 18 10 30  0  0  0.0-1.126946881413e-05-4.774847184308e-12 0.000000000000e+00
    5.900000000000e+01-4.525000000000e+01 4.090884687482e-09-2.028317533875e+00
   -2.257525920868e-06 6.115933647379e-03 3.801658749580e-06 5.153700937271e+03
    1.728000000000e+05 2.793967723846e-08-2.763910174353e-01-6.705522537231e-08
    9.783319075652e-01 3.155937500000e+02 4.399981197792e-01-8.051406801982e-09
   -5.607376426879e-11 1.000000000000e+00 2.025000000000e+03 0.000000000000e+00
    2.400000000000e+00 0.000000000000e+00 1.862645149231e-09 5.900000000000e+01
    1.656060000000e+05 4.000000000000e+00
24 18 10 30  0  0  0.0-5.747890099883e-05-5.684341886081e-13 0.000000000000e+00
    3.000000000000e+01 5.537500000000e+01 4.970921344541e-09 2.433555260099e+00
    2.844259142876e-06 7.512027630582e-03 1.030415296555e-05 5.153623943329e+03
    1.728000000000e+05-1.639127731323e-07-2.413771683485e+00-1.564621925354e-07
    9.404961924929e-01 1.685937500000e+02 5.432122567766e-01-8.071764792831e-09
   -3.342996392075e-10 1.000000000000e+00 2.025000000000e+03 0.000000000000e+00
    2.400000000000e+00 0.000000000000e+00 2.793967723846e-09 3.000000000000e+01
    1.656060000000e+05 4.000000000000e+00
22 18 10 30  0  0  0.0-5.602343007922e-04-1.011812855722e-11 0.000000000000e+00
    7.800000000000e+01 1.812500000000e+00 5.343794019042e-09-2.804599376970e+00
   -9.499490261078e-08 6.990076275542e-03 8.333474397659e-06 5.153671329498e+03
    1.728000000000e+05 5.401670932770e-08 1.756669084730e+00 2.421438694000e-08
    9.256305763432e-01 1.954062500000e+02-1.465955338581e+00-8.252486606335e-09
    4.535903224290e-10 1.000000000000e+00 2.025000000000e+03 0.000000000000e+00
    2.400000000000e+00 0.000000000000e+00-1.816079020500e-08 7.800000000000e+01
    1.656060000000e+05 4.000000000000e+00
25 18 10 30  0  0  0.0-6.691352464259e-04-5.684341886081e-12 0.000000000000e+00
    5.800000000000e+01 9.337500000000e+01 4.341966574622e-09 4.432954493548e-01
    4.908069968224e-06 7.538988953456e-03 5.872920155525e-06 5.153578514099e+03
    1.728000000000e+05-2.421438694000e-08-1.316814938033e+00 6.332993507385e-08
    9.724111869777e-01 2.696250000000e+02 8.550572372289e-01-8.277130489994e-09
   -2.000083311498e-11 1.000000000000e+00 2.025000000000e+03 0.000000000000e+00
    2.400000000000e+00 0.000000000000e+00 5.587935447693e-09 5.800000000000e+01
    1.656060000000e+05 4.000000000000e+00
14 18 10 30  0  0  0.0-9.630294516683e-05 3.410605131648e-13 0.000000000000e+00
    5.300000000000e+01 2.531250000000e+00 4.794128266114e-09-2.296725669214e+00
    1.396983861923e-07 1.001671422273e-02 7.228925824165e-06 5.153636062622e+03
    1.728000000000e+05 1.545995473862e-07 2.946145127547e+00 5.587935447693e-08
    9.610950504266e-01 2.371875000000e+02-1.944366964631e+00-7.950331163205e-09
   -7.893185925733e-11 1.000000000000e+00 2.025000000000e+03 0.000000000000e+00
    2.400000000000e+00 0.000000000000e+00-9.778887033463e-09 5.300000000000e+01
    1.656060000000e+05 4.000000000000e+00
15 18 10 30  0  0  0.0-3.415057435632e-04 1.250555214938e-12 0.000000000000e+00
    7.700000000000e+01-1.343750000000e+00 5.602376218600e-09-2.943362955796e+00
   -2.589076757431e-07 1.094067469239e-02 7.241964340210e-06 5.153578756332e+03
    1.728000000000e+05-1.676380634308e-08 2.780475164420e+00-2.048909664154e-07
    9.283567154064e-01 2.244062500000e+02 7.233678811186e-01-8.308203212869e-09
   -5.357366012941e-11 1.000000000000e+00 2.025000000000e+03 0.000000000000e+00
    2.400000000000e+00 0.000000000000e+00-1.117587089539e-08 7.700000000000e+01
    1.656060000000e+05 4.000000000000e+00
23 18 10 30  0  0  0.0-2.075098454952e-04 9.094947017729e-13 0.000000000000e+00
    6.800000000000e+01-3.375000000000e+00 5.208074080047e-09 2.851016399797e+00
   -2.458691596985e-07 1.263347349595e-02 7.130205631256e-06 5.153700628281e+03
    1.728000000000e+05-3.539025783539e-08 2.852001875543e+00-1.844018697739e-07
    9.436891311602e-01 2.352812500000e+02-2.321370721563e+00-8.071050477363e-09
   -1.621496113250e-10 1.000000000000e+00 2.025000000000e+03 0.000000000000e+00
    2.400000000000e+00 0.000000000000e+00-2.002343535423e-08 6.800000000000e+01
    1.656060000000e+05 4.000000000000e+00
19 18 10 30  0  0  0.0-3.887834027410e-04 3.637978807092e-12 0.000000000000e+00
    5.700000000000e+01-6.565625000000e+01 4.152315817764e-09 7.183178659652e-01
   -3.358349204063e-06 9.508427465335e-03 4.105269908905e-06 5.153605142593e+03
    1.728000000000e+05-1.806765794754e-07-1.748279049126e-01-8.754432201385e-08
    9.813881219088e-01 3.182187500000e+02 1.305344912741e+00-8.244986293917e-09
   -2.632252501025e-10 1.000000000000e+00 2.025000000000e+03 0.000000000000e+00
    2.400000000000e+00 0.000000000000e+00-1.536682248116e-08 5.700000000000e+01
    1.656060000000e+05 4.000000000000e+00
21 18 10 30  0  0  0.0-3.130822442472e-04 6.366462912410e-12 0.000000000000e+00
    5.700000000000e+01-8.050000000000e+01 4.825200988989e-09 3.036843260140e-01
   -4.228204488754e-06 2.439510938711e-02 8.532777428627e-06 5.153599477768e+03
    1.728000000000e+05-3.725290298462e-07 7.205197185955e-01-2.440065145493e-07
    9.458102204721e-01 2.166875000000e+02-1.516397769219e+00-8.587500561011e-09
   -4.643050544549e-12 1.000000000000e+00 2.025000000000e+03 0.000000000000e+00
    2.400000000000e+00 0.000000000000e+00-9.778887033463e-09 5.700000000000e+01
    1.656060000000e+05 4.000000000000e+00
11 18 10 30  0  0  0.0-7.051499560475e-04 3.751665644813e-12 0.000000000000e+00
    6.300000000000e+01-9.959375000000e+01 5.573803599864e-09 1.398370493870e+00
   -5.517154932022e-06 1.685511926189e-02 5.904585123062e-06 5.153667858124e+03
    1.728000000000e+05 2.179294824600e-07 3.419825865246e-01-3.911554813385e-07
    9.073762582176e-01 2.369062500000e+02 1.834606130252e+00-8.686076095649e-09
   -2.321525272275e-11 1.000000000000e+00 2.025000000000e+03 0.000000000000e+00
    2.400000000000e+00 0.000000000000e+00-1.210719347000e-08 6.300000000000e+01
    1.656060000000e+05 4.000000000000e+00
